CTC1_L_00058016-03
1 58851U 23831HM  26070.40831019  .00000000  00000+0  00000-0 0  9994
2 58851  45.0000 180.0000 0000000   0.0000   0.0000 14.98995063    12
CTC1_L_00058016-04
1 58852U 25609LH  26070.40831019  .00000000  00000+0  00000-0 0  9990
2 58852  45.0000 180.0000 0000000   0.0000  90.0000 14.98995063    12
CTC1_L_00058017-01
1 58853U 25159RT  26070.40831019  .00000000  00000+0  00000-0 0  9991
2 58853  45.0000 192.0000 0000000   0.0000 192.0000 14.98995063    19
CTC1_L_00058017-02
1 58854U 23053KB  26070.40831019  .00000000  00000+0  00000-0 0  9993
2 58854  45.0000 192.0000 0000000   0.0000 282.0000 14.98995063    10
CTC1_L_00058017-03
1 58855U 24409ZQ  26070.40831019  .00000000  00000+0  00000-0 0  9990
2 58855  45.0000 192.0000 0000000   0.0000  12.0000 14.98995063    12
CTC1_L_00058017-04
1 58856U 24948JA  26070.40831019  .00000000  00000+0  00000-0 0  9999
2 58856  45.0000 192.0000 0000000   0.0000 102.0000 14.98995063    13
CTC1_L_00058018-01
1 58857U 24279AV  26070.40831019  .00000000  00000+0  00000-0 0  9997
2 58857  45.0000 204.0000 0000000   0.0000 204.0000 14.98995063    11
CTC1_L_00058018-02
1 58858U 26623OZ  26070.40831019  .00000000  00000+0  00000-0 0  9993
2 58858  45.0000 204.0000 0000000   0.0000 294.0000 14.98995063    11
CTC1_L_00058018-03
1 58859U 22928FE  26070.40831019  .00000000  00000+0  00000-0 0  9998
2 58859  45.0000 204.0000 0000000   0.0000  24.0000 14.98995063    13
CTC1_L_00058018-04
1 58860U 24258YZ  26070.40831019  .00000000  00000+0  00000-0 0  9998
2 58860  45.0000 204.0000 0000000   0.0000 114.0000 14.98995063    15
CTC1_L_00058019-01
1 58861U 23528MC  26070.40831019  .00000000  00000+0  00000-0 0  9998
2 58861  45.0000 216.0000 0000000   0.0000 216.0000 14.98995063    12
CTC1_L_00058019-02
1 58862U 22237IS  26070.40831019  .00000000  00000+0  00000-0 0  9995
2 58862  45.0000 216.0000 0000000   0.0000 306.0000 14.98995063    13
CTC1_L_00058019-03
1 58863U 26681DN  26070.40831019  .00000000  00000+0  00000-0 0  9993
2 58863  45.0000 216.0000 0000000   0.0000  36.0000 14.98995063    14
CTC1_L_00058019-04
1 58864U 23321NP  26070.40831019  .00000000  00000+0  00000-0 0  9992
2 58864  45.0000 216.0000 0000000   0.0000 126.0000 14.98995063    15
CTC1_L_00058020-01
1 58865U 23714ZM  26070.40831019  .00000000  00000+0  00000-0 0  9999
2 58865  45.0000 228.0000 0000000   0.0000 228.0000 14.98995063    12
CTC1_L_00058020-02
1 58866U 23043DW  26070.40831019  .00000000  00000+0  00000-0 0  9995
2 58866  45.0000 228.0000 0000000   0.0000 318.0000 14.98995063    13
CTC1_L_00058020-03
1 58867U 26464VW  26070.40831019  .00000000  00000+0  00000-0 0  9996
2 58867  45.0000 228.0000 0000000   0.0000  48.0000 14.98995063    14
CTC1_L_00058020-04
1 58868U 22508AW  26070.40831019  .00000000  00000+0  00000-0 0  9992
2 58868  45.0000 228.0000 0000000   0.0000 138.0000 14.98995063    15
CTC1_L_00058021-01
1 58869U 23856NS  26070.40831019  .00000000  00000+0  00000-0 0  9990
2 58869  45.0000 240.0000 0000000   0.0000 240.0000 14.98995063    14
CTC1_L_00058021-02
1 58870U 22122SH  26070.40831019  .00000000  00000+0  00000-0 0  9997
2 58870  45.0000 240.0000 0000000   0.0000 330.0000 14.98995063    16
CTC1_L_00058021-03
1 58871U 24086U   26070.40831019  .00000000  00000+0  00000-0 0  9999
2 58871  45.0000 240.0000 0000000   0.0000  60.0000 14.98995063    17
CTC1_L_00058021-04
1 58872U 22099HM  26070.40831019  .00000000  00000+0  00000-0 0  9992
2 58872  45.0000 240.0000 0000000   0.0000 150.0000 14.98995063    18
CTC1_L_00058022-01
1 58873U 26299T   26070.40831019  .00000000  00000+0  00000-0 0  9999
2 58873  45.0000 252.0000 0000000   0.0000 252.0000 14.98995063    15
CTC1_L_00058022-02
1 58874U 26490XE  26070.40831019  .00000000  00000+0  00000-0 0  9993
2 58874  45.0000 252.0000 0000000   0.0000 342.0000 14.98995063    16
CTC1_L_00058022-03
1 58875U 26384ZK  26070.40831019  .00000000  00000+0  00000-0 0  9996
2 58875  45.0000 252.0000 0000000   0.0000  72.0000 14.98995063    17
CTC1_L_00058022-04
1 58876U 23503AY  26070.40831019  .00000000  00000+0  00000-0 0  9997
2 58876  45.0000 252.0000 0000000   0.0000 162.0000 14.98995063    18
CTC1_L_00058023-01
1 58877U 23504PT  26070.40831019  .00000000  00000+0  00000-0 0  9999
2 58877  45.0000 264.0000 0000000   0.0000 264.0000 14.98995063    15
CTC1_L_00058023-02
1 58878U 26493VU  26070.40831019  .00000000  00000+0  00000-0 0  9990
2 58878  45.0000 264.0000 0000000   0.0000 354.0000 14.98995063    16
CTC1_L_00058023-03
1 58879U 24177YZ  26070.40831019  .00000000  00000+0  00000-0 0  9998
2 58879  45.0000 264.0000 0000000   0.0000  84.0000 14.98995063    17
CTC1_L_00058023-04
1 58880U 26886CU  26070.40831019  .00000000  00000+0  00000-0 0  9999
2 58880  45.0000 264.0000 0000000   0.0000 174.0000 14.98995063    19
CTC1_L_00058024-01
1 58881U 26033PA  26070.40831019  .00000000  00000+0  00000-0 0  9994
2 58881  45.0000 276.0000 0000000   0.0000 276.0000 14.98995063    16
CTC1_L_00058024-02
1 58882U 22318BK  26070.40831019  .00000000  00000+0  00000-0 0  9997
2 58882  45.0000 276.0000 0000000   0.0000   6.0000 14.98995063    18
CTC1_L_00058024-03
1 58883U 22604HU  26070.40831019  .00000000  00000+0  00000-0 0  9996
2 58883  45.0000 276.0000 0000000   0.0000  96.0000 14.98995063    18
CTC1_L_00058024-04
1 58884U 25391NR  26070.40831019  .00000000  00000+0  00000-0 0  9993
2 58884  45.0000 276.0000 0000000   0.0000 186.0000 14.98995063    19
CTC1_L_00058025-01
1 58885U 22702FU  26070.40831019  .00000000  00000+0  00000-0 0  9997
2 58885  45.0000 288.0000 0000000   0.0000 288.0000 14.98995063    16
CTC1_L_00058025-02
1 58886U 22582WM  26070.40831019  .00000000  00000+0  00000-0 0  9994
2 58886  45.0000 288.0000 0000000   0.0000  18.0000 14.98995063    18
CTC1_L_00058025-03
1 58887U 26535DY  26070.40831019  .00000000  00000+0  00000-0 0  9997
2 58887  45.0000 288.0000 0000000   0.0000 108.0000 14.98995063    19
CTC1_L_00058025-04
1 58888U 26788BW  26070.40831019  .00000000  00000+0  00000-0 0  9998
2 58888  45.0000 288.0000 0000000   0.0000 198.0000 14.98995063    19
CTC1_L_00058026-01
1 58889U 26408DM  26070.40831019  .00000000  00000+0  00000-0 0  9998
2 58889  45.0000 300.0000 0000000   0.0000 300.0000 14.98995063    10
CTC1_L_00058026-02
1 58890U 25318PA  26070.40831019  .00000000  00000+0  00000-0 0  9999
2 58890  45.0000 300.0000 0000000   0.0000  30.0000 14.98995063    12
CTC1_L_00058026-03
1 58891U 25534YF  26070.40831019  .00000000  00000+0  00000-0 0  9990
2 58891  45.0000 300.0000 0000000   0.0000 120.0000 14.98995063    13
CTC1_L_00058026-04
1 58892U 23502ZM  26070.40831019  .00000000  00000+0  00000-0 0  9994
2 58892  45.0000 300.0000 0000000   0.0000 210.0000 14.98995063    14
CTC1_L_00058027-01
1 58893U 24399RG  26070.40831019  .00000000  00000+0  00000-0 0  9990
2 58893  45.0000 312.0000 0000000   0.0000 312.0000 14.98995063    11
CTC1_L_00058027-02
1 58894U 26470BB  26070.40831019  .00000000  00000+0  00000-0 0  9993
2 58894  45.0000 312.0000 0000000   0.0000  42.0000 14.98995063    12
CTC1_L_00058027-03
1 58895U 25336ML  26070.40831019  .00000000  00000+0  00000-0 0  9994
2 58895  45.0000 312.0000 0000000   0.0000 132.0000 14.98995063    13
CTC1_L_00058027-04
1 58896U 25815OR  26070.40831019  .00000000  00000+0  00000-0 0  9997
2 58896  45.0000 312.0000 0000000   0.0000 222.0000 14.98995063    14
CTC1_L_00058028-01
1 58897U 26814CM  26070.40831019  .00000000  00000+0  00000-0 0  9998
2 58897  45.0000 324.0000 0000000   0.0000 324.0000 14.98995063    11
CTC1_L_00058028-02
1 58898U 22429RX  26070.40831019  .00000000  00000+0  00000-0 0  9997
2 58898  45.0000 324.0000 0000000   0.0000  54.0000 14.98995063    12
CTC1_L_00058028-03
1 58899U 23521WT  26070.40831019  .00000000  00000+0  00000-0 0  9992
2 58899  45.0000 324.0000 0000000   0.0000 144.0000 14.98995063    13
CTC1_L_00058028-04
1 58900U 24159EM  26070.40831019  .00000000  00000+0  00000-0 0  9993
2 58900  45.0000 324.0000 0000000   0.0000 234.0000 14.98995063    16
CTC1_L_00058029-01
1 58901U 24477GJ  26070.40831019  .00000000  00000+0  00000-0 0  9997
2 58901  45.0000 336.0000 0000000   0.0000 336.0000 14.98995063    13
CTC1_L_00058029-02
1 58902U 25617SZ  26070.40831019  .00000000  00000+0  00000-0 0  9995
2 58902  45.0000 336.0000 0000000   0.0000  66.0000 14.98995063    14
CTC1_L_00058029-03
1 58903U 24245RS  26070.40831019  .00000000  00000+0  00000-0 0  9992
2 58903  45.0000 336.0000 0000000   0.0000 156.0000 14.98995063    15
CTC1_L_00058029-04
1 58904U 23817WR  26070.40831019  .00000000  00000+0  00000-0 0  9997
2 58904  45.0000 336.0000 0000000   0.0000 246.0000 14.98995063    16
CTC1_L_00058030-01
1 58905U 23667LF  26070.40831019  .00000000  00000+0  00000-0 0  9991
2 58905  45.0000 348.0000 0000000   0.0000 348.0000 14.98995063    13
CTC1_L_00058030-02
1 58906U 22383PD  26070.40831019  .00000000  00000+0  00000-0 0  9996
2 58906  45.0000 348.0000 0000000   0.0000  78.0000 14.98995063    14
CTC1_L_00058030-03
1 58907U 22007IR  26070.40831019  .00000000  00000+0  00000-0 0  9990
2 58907  45.0000 348.0000 0000000   0.0000 168.0000 14.98995063    15
CTC1_L_00058030-04
1 58908U 23198CR  26070.40831019  .00000000  00000+0  00000-0 0  9993
2 58908  45.0000 348.0000 0000000   0.0000 258.0000 14.98995063    16
